[{"OBJECT_NAME":"SAUDISAT 5A","OBJECT_ID":"2018-102A","EPOCH":"2026-03-09T23:40:00.596928","MEAN_MOTION":15.26941021,"ECCENTRICITY":0.00113651,"INCLINATION":97.3185,"RA_OF_ASC_NODE":132.4981,"ARG_OF_PERICENTER":121.7113,"MEAN_ANOMALY":238.5235,"EPHEMERIS_TYPE":0,"CLASSIFICATION_TYPE":"U","NORAD_CAT_ID":43831,"ELEMENT_SET_NO":999,"REV_AT_EPOCH":40053,"BSTAR":0.00030305233,"MEAN_MOTION_DOT":7.96e-5,"MEAN_MOTION_DDOT":0},{"OBJECT_NAME":"STARLINK-31769","OBJECT_ID":"2024-080S","EPOCH":"2026-03-09T22:01:33.301920","MEAN_MOTION":15.27558866,"ECCENTRICITY":0.00014814,"INCLINATION":43.003,"RA_OF_ASC_NODE":36.9508,"ARG_OF_PERICENTER":250.4361,"MEAN_ANOMALY":109.6331,"EPHEMERIS_TYPE":0,"CLASSIFICATION_TYPE":"U","NORAD_CAT_ID":59617,"ELEMENT_SET_NO":999,"REV_AT_EPOCH":10456,"BSTAR":-6.6305038e-5,"MEAN_MOTION_DOT":-2.085e-5,"MEAN_MOTION_DDOT":0}]
